{
    "links": {
        "self": "http://www.neowsapp.com/rest/v1/neo/3548526?api_key=iIulBulltgU6a56xZRHN4H3l9WmuAYTsLGpBGhQ2"
    },
    "id": "3548526",
    "neo_reference_id": "3548526",
    "name": "(2010 TC54)",
    "designation": "2010 TC54",
    "nasa_jpl_url": "http://ssd.jpl.nasa.gov/sbdb.cgi?sstr=3548526",
    "absolute_magnitude_h": 20.9,
    "estimated_diameter": {
        "kilometers": {
            "estimated_diameter_min": 0.1756123185,
            "estimated_diameter_max": 0.3926810818
        },
        "meters": {
            "estimated_diameter_min": 175.6123184804,
            "estimated_diameter_max": 392.6810818086
        },
        "miles": {
            "estimated_diameter_min": 0.1091204019,
            "estimated_diameter_max": 0.2440006365
        },
        "feet": {
            "estimated_diameter_min": 576.1559189633,
            "estimated_diameter_max": 1288.3238004408
        }
    },
    "is_potentially_hazardous_asteroid": false,
    "close_approach_data": [
        {
            "close_approach_date": "2010-10-09",
            "close_approach_date_full": "2010-Oct-09 21:09",
            "epoch_date_close_approach": 1286658540000,
            "relative_velocity": {
                "kilometers_per_second": "13.0146891858",
                "kilometers_per_hour": "46852.881068758",
                "miles_per_hour": "29112.5582396402"
            },
            "miss_distance": {
                "astronomical": "0.2015097008",
                "lunar": "78.3872736112",
                "kilometers": "30145422.024017296",
                "miles": "18731496.6546828448"
            },
            "orbiting_body": "Earth"
        },
        {
            "close_approach_date": "2017-05-29",
            "close_approach_date_full": "2017-May-29 17:56",
            "epoch_date_close_approach": 1496080560000,
            "relative_velocity": {
                "kilometers_per_second": "5.4800845891",
                "kilometers_per_hour": "19728.3045207263",
                "miles_per_hour": "12258.4012173368"
            },
            "miss_distance": {
                "astronomical": "1.5881696044",
                "lunar": "617.7979761116",
                "kilometers": "237586790.016982628",
                "miles": "147629585.6417031464"
            },
            "orbiting_body": "Juptr"
        }
    ],
    "orbital_data": {
        "orbit_id": "14",
        "orbit_determination_date": "2017-04-06 08:56:22",
        "first_observation_date": "2010-10-09",
        "last_observation_date": "2010-10-30",
        "data_arc_in_days": 21,
        "observations_used": 60,
        "orbit_uncertainty": "7",
        "minimum_orbit_intersection": ".176273",
        "jupiter_tisserand_invariant": "3.038",
        "epoch_osculation": "2459000.5",
        "eccentricity": ".5665715228550663",
        "semi_major_axis": "2.713018711439649",
        "inclination": "19.77148820999809",
        "ascending_node_longitude": "191.6818080316198",
        "orbital_period": "1632.215923686882",
        "perihelion_distance": "1.175899568564998",
        "perihelion_argument": "178.7865091288012",
        "aphelion_distance": "4.250137854314301",
        "perihelion_time": "2458733.686427424729",
        "mean_anomaly": "58.84814915304314",
        "mean_motion": ".220559053968071",
        "equinox": "J2000",
        "orbit_class": {
            "orbit_class_type": "AMO",
            "orbit_class_description": "Near-Earth asteroid orbits similar to that of 1221 Amor",
            "orbit_class_range": "1.017 AU < q (perihelion) < 1.3 AU"
        }
    },
    "is_sentry_object": false
}